NORAD_CAT_ID,OBJECT_NAME,OBJECT_TYPE,EPOCH,MEAN_MOTION,ECCENTRICITY,INCLINATION,RA_OF_ASC_NODE,ARG_OF_PERICENTER,MEAN_ANOMALY,BSTAR,MEAN_MOTION_DOT,MEAN_MOTION_DDOT,TLE_LINE0,TLE_LINE1,TLE_LINE2,SEMIMAJOR_AXIS,PERIOD,APOGEE,PERIGEE,DECAYED
53143.0,STARLINK-4102,PAYLOAD,2024-04-01 07:55:18,15.08823736,0.0001233,53.2176,109.5781,101.8774,258.2356,4.2019e-05,3.81e-06,0.0,0 STARLINK-4102,1 53143U 22083M   24092.33007190  .00000381  00000-0  42019-4 0  9993,2 53143  53.2176 109.5781 0001233 101.8774 258.2356 15.08823736 95064,6917.93,95.439,540.648,538.942,0.0
53143.0,STARLINK-4102,PAYLOAD,2024-04-02 01:24:32,15.08834008,0.0001312,53.2169,106.3092,99.2404,260.8737,8.7679e-06,-1.48e-06,0.0,0 STARLINK-4102,1 53143U 22083M   24093.05870889 -.00000148  00000-0  87679-5 0  9990,2 53143  53.2169 106.3092 0001312  99.2404 260.8737 15.08834008 95172,6917.899,95.438,540.671,538.856,0.0
53143.0,STARLINK-4102,PAYLOAD,2024-04-02 07:46:04,15.08839714,0.000131,53.2171,105.1204,99.7033,260.4107,6.1241e-05,6.87e-06,0.0,0 STARLINK-4102,1 53143U 22083M   24093.32366437  .00000687  00000-0  61241-4 0  9992,2 53143  53.2171 105.1204 0001310  99.7033 260.4107 15.08839714 95219,6917.881,95.438,540.653,538.84,0.0
53143.0,STARLINK-4102,PAYLOAD,2024-04-02 17:18:22,15.08848461,0.000133,53.2174,103.3352,97.2474,262.8669,5.0464e-05,5.15e-06,0.0,0 STARLINK-4102,1 53143U 22083M   24093.72109826  .00000515  00000-0  50464-4 0  9998,2 53143  53.2174 103.3352 0001330  97.2474 262.8669 15.08848461 95274,6917.855,95.437,540.64,538.799,0.0
53143.0,STARLINK-4102,PAYLOAD,2024-04-03 10:47:38,15.08831304,0.0001532,53.2183,100.0648,102.8759,257.2404,0.00014204,1.973e-05,0.0,0 STARLINK-4102,1 53143U 22083M   24094.44975180  .00001973  00000-0  14204-3 0  9992,2 53143  53.2183 100.0648 0001532 102.8759 257.2404 15.08831304 95384,6917.907,95.438,540.832,538.712,0.0
53143.0,STARLINK-4102,PAYLOAD,2024-04-03 17:09:10,15.08836868,0.0001583,53.2188,98.8759,103.6635,256.4533,0.00014629,2.041e-05,0.0,0 STARLINK-4102,1 53143U 22083M   24094.71470886  .00002041  00000-0  14629-3 0  9993,2 53143  53.2188  98.8759 0001583 103.6635 256.4533 15.08836868 94792,6917.89,95.438,540.85,538.66,0.0
53143.0,STARLINK-4102,PAYLOAD,2024-04-04 09:03:02,15.08839678,0.0001747,53.2187,95.9022,107.5701,252.5482,2.7371e-05,1.48e-06,0.0,0 STARLINK-4102,1 53143U 22083M   24095.37710995  .00000148  00000-0  27371-4 0  9999,2 53143  53.2187  95.9022 0001747 107.5701 252.5482 15.08839678 94894,6917.881,95.438,540.955,538.538,0.0
53143.0,STARLINK-4102,PAYLOAD,2024-04-04 16:59:57,15.0884522,0.0001417,53.2174,94.4143,93.5258,266.5897,7.2901e-05,8.73e-06,0.0,0 STARLINK-4102,1 53143U 22083M   24095.70830435  .00000873  00000-0  72901-4 0  9992,2 53143  53.2174  94.4143 0001417  93.5258 266.5897 15.08845220 95574,6917.864,95.437,540.71,538.749,0.0
53143.0,STARLINK-4102,PAYLOAD,2024-04-05 07:18:25,15.08841958,0.0001459,53.2172,91.7375,94.322,265.7939,6.6226e-05,7.66e-06,0.0,0 STARLINK-4102,1 53143U 22083M   24096.30446596  .00000766  00000-0  66226-4 0  9994,2 53143  53.2172  91.7375 0001459  94.3220 265.7939 15.08841958 95036,6917.874,95.437,540.749,538.73,0.0
53143.0,STARLINK-4102,PAYLOAD,2024-04-05 23:12:16,15.08843872,0.000157,53.2178,88.765,87.3094,272.8078,6.6616e-05,7.72e-06,0.0,0 STARLINK-4102,1 53143U 22083M   24096.96686333  .00000772  00000-0  66616-4 0  9991,2 53143  53.2178  88.7650 0001570  87.3094 272.8078 15.08843872 95130,6917.869,95.437,540.82,538.647,0.0
53143.0,STARLINK-4102,PAYLOAD,2024-04-06 05:33:50,15.08835801,0.0001294,53.2178,87.5741,91.8116,268.3024,1.7203e-05,-1.4e-07,0.0,0 STARLINK-4102,1 53143U 22083M   24097.23182963 -.00000014  00000-0  17203-4 0  9990,2 53143  53.2178  87.5741 0001294  91.8116 268.3024 15.08835801 95804,6917.893,95.438,540.653,538.863,0.0
53143.0,STARLINK-4102,PAYLOAD,2024-04-06 08:44:36,15.08840058,0.0001347,53.2168,86.9778,99.4586,260.6558,1.4536e-05,-5.7e-07,0.0,0 STARLINK-4102,1 53143U 22083M   24097.36430668 -.00000057  00000-0  14536-4 0  9995,2 53143  53.2168  86.9778 0001347  99.4586 260.6558 15.08840058 95199,6917.88,95.438,540.677,538.813,0.0
53143.0,STARLINK-4102,PAYLOAD,2024-04-06 16:41:31,15.08845261,0.0001323,53.2168,85.4912,94.0353,266.0791,4.1474e-05,3.72e-06,0.0,0 STARLINK-4102,1 53143U 22083M   24097.69550190  .00000372  00000-0  41474-4 0  9994,2 53143  53.2168  85.4912 0001323  94.0353 266.0791 15.08845261 95875,6917.864,95.437,540.645,538.814,0.0
53143.0,STARLINK-4102,PAYLOAD,2024-04-06 23:03:04,15.08839471,0.0001328,53.217,84.3028,93.9824,266.132,3.5224e-05,2.73e-06,0.0,0 STARLINK-4102,1 53143U 22083M   24097.96046547  .00000273  00000-0  35224-4 0  9996,2 53143  53.2170  84.3028 0001328  93.9824 266.1320 15.08839471 95280,6917.882,95.438,540.666,538.828,0.0
53143.0,STARLINK-4102,PAYLOAD,2024-04-07 08:35:23,15.08838907,0.0001601,53.2188,82.5177,110.2948,249.8216,-3.2907e-05,-8.12e-06,0.0,0 STARLINK-4102,1 53143U 22083M   24098.35790936 -.00000812  00000-0 -32907-4 0  9994,2 53143  53.2188  82.5177 0001601 110.2948 249.8216 15.08838907 95340,6917.884,95.438,540.856,538.641,0.0
53143.0,STARLINK-4102,PAYLOAD,2024-04-07 16:32:19,15.08837783,0.0001518,53.2185,81.0311,93.0597,267.0569,7.593e-06,-1.67e-06,0.0,0 STARLINK-4102,1 53143U 22083M   24098.68911043 -.00000167  00000-0  75930-5 0  9990,2 53143  53.2185  81.0311 0001518  93.0597 267.0569 15.08837783 95395,6917.887,95.438,540.802,538.702,0.0
53143.0,STARLINK-4102,PAYLOAD,2024-04-08 03:40:00,15.08838931,0.0001429,53.2179,78.9498,97.4445,262.6709,8.5707e-05,1.076e-05,0.0,0 STARLINK-4102,1 53143U 22083M   24099.15278734  .00001076  00000-0  85707-4 0  9997,2 53143  53.2179  78.9498 0001429  97.4445 262.6709 15.08838931 96091,6917.884,95.438,540.737,538.76,0.0
53143.0,STARLINK-4102,PAYLOAD,2024-04-08 08:26:10,15.08841717,0.0001461,53.2182,78.0574,99.8748,260.2409,5.9781e-05,6.64e-06,0.0,0 STARLINK-4102,1 53143U 22083M   24099.35150631  .00000664  00000-0  59781-4 0  9999,2 53143  53.2182  78.0574 0001461  99.8748 260.2409 15.08841717 95499,6917.875,95.437,540.751,538.729,0.0
53143.0,STARLINK-4102,PAYLOAD,2024-04-09 05:06:11,15.08837414,0.0001383,53.2179,74.1918,94.8289,265.2861,0.00010921,1.45e-05,0.0,0 STARLINK-4102,1 53143U 22083M   24100.21262854  .00001450  00000-0  10921-3 0  9994,2 53143  53.2179  74.1918 0001383  94.8289 265.2861 15.08837414 96253,6917.888,95.438,540.71,538.797,0.0
53143.0,STARLINK-4102,PAYLOAD,2024-04-09 08:16:57,15.08838386,0.0001349,53.2182,73.5972,93.7848,266.3299,8.5172e-05,1.068e-05,0.0,0 STARLINK-4102,1 53143U 22083M   24100.34510891  .00001068  00000-0  85172-4 0  9991,2 53143  53.2182  73.5972 0001349  93.7848 266.3299 15.08838386 95649,6917.885,95.438,540.684,538.817,0.0
53143.0,STARLINK-4102,PAYLOAD,2024-04-09 14:38:29,15.08843196,0.0001345,53.2185,72.4079,94.0337,266.0809,0.00010713,1.418e-05,0.0,0 STARLINK-4102,1 53143U 22083M   24100.61006533  .00001418  00000-0  10713-3 0  9991,2 53143  53.2185  72.4079 0001345  94.0337 266.0809 15.08843196 95684,6917.871,95.437,540.666,538.805,0.0
53143.0,STARLINK-4102,PAYLOAD,2024-04-10 04:56:58,15.08833134,0.0001445,53.2192,69.7364,89.3914,270.7244,1.0663e-05,-1.18e-06,0.0,0 STARLINK-4102,1 53143U 22083M   24101.20623646 -.00000118  00000-0  10663-4 0  9999,2 53143  53.2192  69.7364 0001445  89.3914 270.7244 15.08833134 96404,6917.901,95.438,540.766,538.767,0.0
53143.0,STARLINK-4102,PAYLOAD,2024-04-10 08:07:44,15.08838386,0.0001443,53.2189,69.1407,98.4142,261.7014,-1.8535e-05,-5.83e-06,0.0,0 STARLINK-4102,1 53143U 22083M   24101.33871384 -.00000583  00000-0 -18535-4 0  9990,2 53143  53.2189  69.1407 0001443  98.4142 261.7014 15.08838386 95794,6917.885,95.438,540.749,538.752,0.0
53143.0,STARLINK-4102,PAYLOAD,2024-04-11 07:58:32,15.08836999,0.0001292,53.2177,64.6776,93.2497,266.8643,2.1938e-05,6.1e-07,0.0,0 STARLINK-4102,1 53143U 22083M   24102.33231628  .00000061  00000-0  21938-4 0  9992,2 53143  53.2177  64.6776 0001292  93.2497 266.8643 15.08836999 96577,6917.89,95.438,540.648,538.861,0.0
53143.0,STARLINK-4102,PAYLOAD,2024-04-11 14:20:04,15.08844281,0.000134,53.2183,63.4884,93.0963,267.0182,6.6529e-05,7.71e-06,0.0,0 STARLINK-4102,1 53143U 22083M   24102.59727076  .00000771  00000-0  66529-4 0  9990,2 53143  53.2183  63.4884 0001340  93.0963 267.0182 15.08844281 95989,6917.867,95.437,540.659,538.805,0.0
53143.0,STARLINK-4102,PAYLOAD,2024-04-12 04:38:33,15.08834724,0.0001481,53.2196,60.8134,93.1985,266.9177,4.8684e-05,4.87e-06,0.0,0 STARLINK-4102,1 53143U 22083M   24103.19344008  .00000487  00000-0  48684-4 0  9993,2 53143  53.2196  60.8134 0001481  93.1985 266.9177 15.08834724 96707,6917.897,95.438,540.786,538.737,0.0
53143.0,STARLINK-4102,PAYLOAD,2024-04-12 06:13:56,15.08835387,0.0001581,53.219,60.5173,96.8608,263.2564,7.4963e-05,9.05e-06,0.0,0 STARLINK-4102,1 53143U 22083M   24103.25967914  .00000905  00000-0  74963-4 0  9991,2 53143  53.2190  60.5173 0001581  96.8608 263.2564 15.08835387 96081,6917.894,95.438,540.853,538.666,0.0
53143.0,STARLINK-4102,PAYLOAD,2024-04-13 04:29:19,15.08839265,0.0001495,53.2183,56.3558,108.2235,251.892,0.00015619,2.199e-05,0.0,0 STARLINK-4102,1 53143U 22083M   24104.18703457  .00002199  00000-0  15619-3 0  9993,2 53143  53.2183  56.3558 0001495 108.2235 251.8920 15.08839265 96854,6917.883,95.438,540.782,538.713,0.0
53143.0,STARLINK-4102,PAYLOAD,2024-04-13 06:04:42,15.08844604,0.0001377,53.2181,56.0532,91.0046,269.1104,0.00011012,1.465e-05,0.0,0 STARLINK-4102,1 53143U 22083M   24104.25327291  .00001465  00000-0  11012-3 0  9997,2 53143  53.2181  56.0532 0001377  91.0046 269.1104 15.08844604 96230,6917.866,95.437,540.684,538.779,0.0
53143.0,STARLINK-4102,PAYLOAD,2024-04-14 02:44:43,15.08841643,0.0001439,53.2198,52.1814,86.4005,273.7151,4.5934e-05,4.43e-06,0.0,0 STARLINK-4102,1 53143U 22083M   24105.11439625  .00000443  00000-0  45934-4 0  9994,2 53143  53.2198  52.1814 0001439  86.4005 273.7151 15.08841643 96367,6917.875,95.437,540.736,538.745,0.0
